{"type":"FeatureCollection","features":[{"type":"Feature","properties":{"rola":"maska"},"geometry":{"type":"MultiPolygon","coordinates":[[[[-180,-85],[180,-85],[180,85],[-180,85],[-180,-85]],[[14.1237,52.8454],[14.1588,52.8773],[14.1616,52.8881],[14.1523,52.9006],[14.1502,52.9163],[14.1426,52.9332],[14.1443,52.9435],[14.1388,52.9518],[14.1437,52.9614],[14.1606,52.9646],[14.1687,52.9736],[14.2094,52.9882],[14.2356,52.9932],[14.259,53.003],[14.2916,53.02],[14.3123,53.0355],[14.338,53.0466],[14.3524,53.0589],[14.3655,53.0786],[14.3713,53.0965],[14.3702,53.1046],[14.3783,53.1116],[14.3873,53.1424],[14.3737,53.1543],[14.3663,53.172],[14.3746,53.1878],[14.3773,53.2018],[14.4059,53.2107],[14.4085,53.2232],[14.4308,53.2391],[14.436,53.2496],[14.4496,53.2595],[14.4452,53.2744],[14.4212,53.2761],[14.4149,53.3019],[14.4068,53.3087],[14.4154,53.3244],[14.4055,53.3471],[14.3903,53.3537],[14.3954,53.3692],[14.3893,53.3878],[14.3733,53.4089],[14.3687,53.4326],[14.3713,53.4564],[14.3581,53.4573],[14.3507,53.496],[14.3269,53.5038],[14.3158,53.5251],[14.3159,53.5369],[14.3058,53.5439],[14.3026,53.5534],[14.3139,53.5651],[14.3119,53.5797],[14.3169,53.6181],[14.3111,53.6185],[14.2839,53.6344],[14.2848,53.6587],[14.2708,53.6668],[14.2823,53.6743],[14.2668,53.6987],[14.2735,53.7444],[14.267,53.7535],[14.2836,53.7723],[14.2139,53.8654],[14.2154,53.8808],[14.2121,53.9006],[14.204,53.9066],[14.2076,53.9159],[14.2261,53.9277],[14.2497,53.924],[14.2726,53.9242],[14.2712,53.9348],[14.2804,53.9376],[14.3015,53.9304],[14.3029,53.9196],[14.3445,53.9119],[14.3662,53.9127],[14.4085,53.9198],[14.4285,53.9255],[14.4548,53.9364],[14.4992,53.9634],[14.5347,53.9703],[14.5685,53.9812],[14.6436,53.9986],[14.6683,54.003],[14.7023,54.0132],[14.7277,54.0229],[14.7812,54.0338],[14.9293,54.0617],[15.0596,54.0949],[15.0955,54.1003],[15.1372,54.1106],[15.2472,54.135],[15.286,54.1471],[15.3961,54.1605],[15.4294,54.1654],[15.4801,54.166],[15.5245,54.1748],[15.5532,54.1876],[15.5884,54.1876],[15.6428,54.1971],[15.6612,54.1988],[15.7188,54.2092],[15.7583,54.2179],[15.8099,54.2327],[15.8483,54.2411],[15.876,54.2443],[15.9373,54.248],[15.974,54.2513],[16.0293,54.2585],[16.1024,54.2744],[16.1546,54.2922],[16.2047,54.3152],[16.2624,54.3493],[16.3138,54.3834],[16.3575,54.4206],[16.3743,54.4378],[16.3716,54.4414],[16.3946,54.4477],[16.4315,54.487],[16.4797,54.5164],[16.4968,54.5231],[16.5299,54.5407],[16.6145,54.5598],[16.6887,54.5696],[16.6991,54.5692],[16.748,54.5683],[16.7651,54.5698],[16.7935,54.5775],[16.8536,54.5889],[16.89,54.5917],[16.9521,54.6126],[17.0003,54.6375],[17.0508,54.6697],[17.1518,54.6985],[17.2419,54.7296],[17.2632,54.7341],[17.3201,54.7419],[17.3545,54.7497],[17.4037,54.7537],[17.4697,54.757],[17.5508,54.7701],[17.6268,54.7773],[17.6681,54.7835],[17.7561,54.8016],[17.8082,54.8076],[17.915,54.8274],[17.9678,54.8323],[18.0803,54.8352],[18.1289,54.8336],[18.1732,54.8349],[18.2338,54.8338],[18.3005,54.8364],[18.3294,54.8353],[18.3489,54.8273],[18.3697,54.8139],[18.4214,54.798],[18.4342,54.7891],[18.5444,54.7501],[18.6616,54.7111],[18.7332,54.6819],[18.7944,54.6481],[18.8262,54.6233],[18.8289,54.6077],[18.8137,54.5932],[18.799,54.6014],[18.7953,54.6087],[18.7791,54.6131],[18.7778,54.621],[18.7642,54.6376],[18.7484,54.6494],[18.7158,54.6782],[18.6856,54.6947],[18.654,54.6998],[18.6268,54.7184],[18.596,54.7281],[18.5227,54.755],[18.5066,54.7586],[18.4671,54.7723],[18.4509,54.78],[18.4222,54.788],[18.4221,54.7876],[18.4173,54.7694],[18.4068,54.7616],[18.3964,54.7464],[18.3938,54.7296],[18.4291,54.7171],[18.4467,54.7042],[18.473,54.6946],[18.466,54.6862],[18.4659,54.6557],[18.474,54.6499],[18.4683,54.6382],[18.4746,54.6311],[18.512,54.6342],[18.5106,54.6209],[18.5162,54.6066],[18.5339,54.5882],[18.5417,54.5851],[18.5535,54.5582],[18.5597,54.5506],[18.5616,54.5174],[18.5511,54.5153],[18.5691,54.4853],[18.5618,54.4707],[18.5646,54.4553],[18.58,54.4383],[18.5927,54.4291],[18.6237,54.414],[18.6435,54.4085],[18.6624,54.4131],[18.6976,54.4013],[18.7183,54.4086],[18.7313,54.4033],[18.7079,54.3903],[18.7178,54.3802],[18.7355,54.3745],[18.7762,54.3705],[18.8508,54.3522],[18.8802,54.348],[18.9172,54.3463],[18.9541,54.3591],[18.9688,54.3499],[18.9895,54.3451],[19.0367,54.3445],[19.0978,54.3464],[19.1665,54.3501],[19.2562,54.3573],[19.3074,54.3633],[19.4072,54.3809],[19.4781,54.3978],[19.5461,54.4185],[19.5971,54.4385],[19.6377,54.4592],[19.6487,54.4533],[19.8103,54.4419],[19.9351,54.4316],[20.0074,54.4247],[20.0513,54.4232],[20.332,54.4011],[20.3607,54.3959],[20.4034,54.3929],[20.4385,54.3879],[20.5055,54.3827],[20.584,54.378],[20.6224,54.371],[20.6311,54.3663],[20.6481,54.3712],[20.6894,54.3723],[20.7175,54.3692],[20.7408,54.3693],[20.8184,54.36],[20.8992,54.3582],[20.9582,54.3546],[21.0067,54.3536],[21.0381,54.3486],[21.0898,54.3473],[21.1432,54.3426],[21.1641,54.3373],[21.1967,54.3378],[21.2744,54.3284],[21.3029,54.3335],[21.3239,54.3294],[21.3795,54.3311],[21.3935,54.3279],[21.437,54.3262],[21.4461,54.3182],[21.4958,54.324],[21.5736,54.3254],[21.6349,54.3274],[21.6767,54.3268],[21.7962,54.3318],[21.815,54.3312],[21.9135,54.3337],[21.9697,54.3327],[21.995,54.3356],[22.0613,54.3356],[22.097,54.3374],[22.1528,54.3366],[22.1882,54.3389],[22.2257,54.3438],[22.2599,54.3406],[22.3825,54.3447],[22.4218,54.3485],[22.5281,54.3492],[22.5713,54.3539],[22.6165,54.3557],[22.6416,54.3538],[22.6806,54.3602],[22.7239,54.3608],[22.792,54.3633],[22.8114,54.371],[22.8363,54.4065],[22.8547,54.4104],[22.888,54.4091],[22.8875,54.3999],[22.9347,54.3962],[22.9485,54.3928],[22.9838,54.3896],[22.9848,54.3845],[23.0102,54.3828],[22.9939,54.3619],[23.0094,54.3557],[23.0477,54.3492],[23.0632,54.341],[23.0509,54.3335],[23.0421,54.316],[23.0922,54.2985],[23.1404,54.3159],[23.1598,54.3096],[23.1542,54.297],[23.1764,54.2909],[23.2024,54.2886],[23.2115,54.2782],[23.2238,54.2719],[23.2339,54.2609],[23.2489,54.2568],[23.2818,54.2607],[23.2887,54.2571],[23.3375,54.2517],[23.3484,54.2457],[23.3582,54.2336],[23.3817,54.2282],[23.3826,54.2275],[23.3832,54.2268],[23.3942,54.2169],[23.4064,54.1963],[23.4192,54.1911],[23.4245,54.1775],[23.459,54.1755],[23.4612,54.1678],[23.4755,54.1634],[23.4858,54.1532],[23.4953,54.1326],[23.4926,54.117],[23.502,54.1129],[23.507,54.0995],[23.5183,54.0898],[23.5184,54.0787],[23.5286,54.0658],[23.5249,54.0311],[23.5162,54.0286],[23.509,54.0118],[23.5009,54.0077],[23.4812,53.9988],[23.4904,53.9739],[23.5063,53.9658],[23.5149,53.9566],[23.5116,53.9159],[23.5243,53.872],[23.5241,53.8626],[23.5482,53.8561],[23.5535,53.8319],[23.5465,53.8267],[23.5447,53.7963],[23.5491,53.7678],[23.5821,53.7438],[23.5856,53.7283],[23.5853,53.7057],[23.6027,53.6626],[23.6269,53.5958],[23.651,53.5456],[23.6597,53.5214],[23.6672,53.5126],[23.7074,53.4365],[23.7371,53.3916],[23.7635,53.3381],[23.799,53.2742],[23.8188,53.244],[23.8553,53.2318],[23.8612,53.2211],[23.8572,53.2104],[23.8684,53.1939],[23.8957,53.1764],[23.9077,53.1722],[23.9174,53.1568],[23.9158,53.143],[23.8973,53.1312],[23.8872,53.1165],[23.8888,53.105],[23.8721,53.082],[23.8785,53.0794],[23.8823,53.0661],[23.9026,53.0582],[23.8987,53.0504],[23.9168,53.039],[23.91,53.0328],[23.9254,53.0246],[23.9333,52.9884],[23.9311,52.9762],[23.9463,52.9587],[23.9165,52.9388],[23.9162,52.9048],[23.9258,52.8988],[23.9237,52.8545],[23.9246,52.8307],[23.9396,52.8132],[23.9386,52.7129],[23.9001,52.6912],[23.8925,52.6797],[23.8794,52.6797],[23.7562,52.6145],[23.7315,52.6086],[23.7186,52.6147],[23.6414,52.6075],[23.5877,52.5941],[23.5402,52.5802],[23.5046,52.5663],[23.4666,52.5494],[23.4579,52.5404],[23.4358,52.53],[23.4081,52.5115],[23.3567,52.4689],[23.3122,52.425],[23.3103,52.414],[23.2999,52.4038],[23.278,52.3928],[23.2384,52.3544],[23.2162,52.3304],[23.1783,52.2831],[23.2012,52.2781],[23.2008,52.2644],[23.2056,52.2572],[23.1941,52.2395],[23.2,52.2297],[23.239,52.2196],[23.2734,52.2149],[23.2948,52.2211],[23.2991,52.2117],[23.3377,52.2062],[23.3525,52.2107],[23.366,52.208],[23.3712,52.1965],[23.4002,52.1945],[23.3988,52.1788],[23.4136,52.1826],[23.4228,52.1734],[23.432,52.1734],[23.4447,52.1828],[23.4582,52.1846],[23.4712,52.1743],[23.4856,52.1813],[23.5074,52.1739],[23.4908,52.1686],[23.487,52.1548],[23.5017,52.1471],[23.5098,52.1502],[23.5212,52.1329],[23.5417,52.1285],[23.5431,52.1204],[23.567,52.1157],[23.5802,52.1199],[23.5986,52.1174],[23.6078,52.1098],[23.6116,52.0982],[23.6201,52.0913],[23.6402,52.0858],[23.6429,52.0772],[23.6536,52.0711],[23.6444,52.0645],[23.6523,52.0586],[23.6627,52.0399],[23.6631,52.0242],[23.6763,52.0033],[23.689,51.9919],[23.6864,51.9867],[23.6654,51.9789],[23.6693,51.9647],[23.6505,51.9631],[23.6398,51.9535],[23.6447,51.9324],[23.6208,51.9251],[23.612,51.9174],[23.6204,51.911],[23.6184,51.9035],[23.6318,51.8997],[23.6369,51.8918],[23.6235,51.8869],[23.6204,51.8776],[23.6071,51.8763],[23.6103,51.8607],[23.6174,51.857],[23.6015,51.8331],[23.6203,51.8315],[23.6402,51.8048],[23.6297,51.7921],[23.6313,51.7815],[23.6116,51.772],[23.597,51.7722],[23.5883,51.76],[23.5739,51.7569],[23.5614,51.7613],[23.546,51.7484],[23.5304,51.7422],[23.527,51.7298],[23.5345,51.7232],[23.5471,51.7238],[23.5581,51.7016],[23.5491,51.6839],[23.5578,51.6647],[23.5445,51.6615],[23.5398,51.6549],[23.5412,51.6355],[23.5464,51.6219],[23.5425,51.6003],[23.5679,51.5756],[23.5678,51.5624],[23.5777,51.5579],[23.5657,51.5508],[23.5651,51.5344],[23.5874,51.5295],[23.593,51.5354],[23.6247,51.5144],[23.6173,51.5102],[23.6211,51.4959],[23.6361,51.4903],[23.6703,51.4825],[23.6714,51.4748],[23.6534,51.4593],[23.6513,51.4455],[23.6667,51.4454],[23.6825,51.4401],[23.6768,51.4305],[23.7005,51.4099],[23.6903,51.3986],[23.6806,51.3801],[23.6827,51.3727],[23.6691,51.3622],[23.6563,51.3586],[23.6562,51.3391],[23.6361,51.3291],[23.6395,51.3099],[23.6519,51.3003],[23.646,51.2918],[23.6562,51.287],[23.6857,51.2904],[23.7041,51.2818],[23.7095,51.2734],[23.7256,51.2618],[23.7242,51.2465],[23.7275,51.2357],[23.743,51.2244],[23.7391,51.2155],[23.7539,51.2113],[23.7681,51.2003],[23.7825,51.1991],[23.7867,51.189],[23.8089,51.1846],[23.8136,51.1714],[23.8305,51.1622],[23.8579,51.1581],[23.8703,51.1399],[23.8504,51.1249],[23.8554,51.1186],[23.8572,51.0995],[23.8714,51.0949],[23.8764,51.0792],[23.8918,51.0748],[23.9114,51.0742],[23.9182,51.0254],[23.9354,51.0153],[23.922,51.012],[23.9568,50.9908],[23.9667,50.9791],[23.9697,50.9509],[23.987,50.9451],[23.9988,50.9274],[24.0228,50.9166],[24.0381,50.9043],[24.0589,50.8922],[24.0869,50.8888],[24.1014,50.8761],[24.1129,50.8754],[24.1284,50.8677],[24.1454,50.8695],[24.1433,50.8582],[24.1321,50.849],[24.0968,50.8365],[24.0449,50.8337],[24.0246,50.8407],[24.0069,50.8412],[23.9896,50.8375],[23.9638,50.8144],[23.9652,50.8017],[23.9575,50.7941],[23.9684,50.7855],[23.9683,50.7763],[23.985,50.7701],[24.0096,50.772],[24.0238,50.7662],[24.0127,50.7581],[24.0205,50.747],[24.0184,50.7251],[24.0461,50.7171],[24.072,50.7206],[24.0751,50.7107],[24.0722,50.6986],[24.0629,50.6836],[24.0867,50.6691],[24.0893,50.6513],[24.0802,50.6451],[24.0936,50.6352],[24.0918,50.6165],[24.0987,50.5995],[24.0903,50.5779],[24.0913,50.562],[24.0855,50.5492],[24.0701,50.5034],[24.038,50.4551],[24.0345,50.4448],[24.0058,50.4354],[23.9975,50.4121],[23.9405,50.4139],[23.884,50.4083],[23.8034,50.4048],[23.7788,50.4011],[23.727,50.388],[23.7031,50.3753],[23.6912,50.3534],[23.6863,50.3316],[23.6388,50.3205],[23.631,50.3048],[23.6116,50.2992],[23.581,50.266],[23.5479,50.2518],[23.5063,50.2303],[23.4701,50.2179],[23.4294,50.1842],[23.3803,50.1594],[23.3421,50.1336],[23.314,50.112],[23.2969,50.1029],[23.2792,50.0998],[23.2793,50.0863],[23.2646,50.0789],[23.2393,50.0545],[23.216,50.0475],[23.213,50.0311],[23.1426,49.9712],[23.1149,49.9565],[23.1075,49.942],[23.0885,49.9248],[23.0652,49.9084],[23.0314,49.8795],[22.9955,49.8422],[22.9707,49.8386],[22.9544,49.8033],[22.9328,49.7933],[22.8979,49.7645],[22.8968,49.7518],[22.8734,49.7406],[22.8521,49.7204],[22.8478,49.7101],[22.8219,49.6945],[22.8056,49.6934],[22.7872,49.6765],[22.7833,49.6572],[22.7494,49.6313],[22.6847,49.5717],[22.6747,49.5492],[22.6632,49.5388],[22.6408,49.53],[22.6512,49.5084],[22.6704,49.4975],[22.6967,49.4951],[22.7135,49.4362],[22.7325,49.3986],[22.7468,49.3599],[22.7432,49.3358],[22.751,49.3166],[22.7441,49.2988],[22.7396,49.2473],[22.7213,49.2413],[22.7149,49.2265],[22.7475,49.2165],[22.7345,49.2119],[22.7289,49.197],[22.7226,49.1959],[22.7075,49.1748],[22.7147,49.1703],[22.7303,49.1756],[22.7328,49.1822],[22.752,49.1814],[22.7384,49.1595],[22.7603,49.1525],[22.7924,49.1534],[22.7934,49.138],[22.8164,49.128],[22.8421,49.11],[22.876,49.0967],[22.8928,49.0946],[22.8841,49.0818],[22.8682,49.0773],[22.8664,49.0596],[22.8758,49.0511],[22.8665,49.0409],[22.8788,49.0247],[22.8941,49.0176],[22.8916,49.0077],[22.8597,49.002],[22.8474,49.0025],[22.8337,49.0261],[22.8132,49.0251],[22.8095,49.0346],[22.8001,49.0366],[22.7862,49.0465],[22.7655,49.0535],[22.755,49.0429],[22.7354,49.049],[22.7146,49.0515],[22.6991,49.0497],[22.6833,49.0389],[22.6516,49.0508],[22.638,49.0614],[22.6257,49.0803],[22.605,49.0845],[22.5998,49.0935],[22.5825,49.0973],[22.5598,49.0873],[22.5348,49.0933],[22.5113,49.0922],[22.4998,49.0859],[22.4871,49.0884],[22.4668,49.1007],[22.4553,49.1037],[22.4284,49.0985],[22.4095,49.1051],[22.3902,49.1274],[22.3813,49.1305],[22.3697,49.1455],[22.3346,49.1465],[22.3205,49.1356],[22.2972,49.1415],[22.2818,49.1421],[22.2462,49.1533],[22.2246,49.153],[22.2278,49.1635],[22.2359,49.1685],[22.2306,49.1807],[22.2096,49.1825],[22.193,49.1744],[22.1759,49.1831],[22.1429,49.1936],[22.1438,49.2005],[22.1276,49.2005],[22.078,49.2088],[22.0506,49.2163],[22.0302,49.2255],[22.039,49.245],[22.0408,49.2584],[22.0331,49.2647],[22.0336,49.2791],[22.0107,49.2895],[21.9832,49.3104],[21.9774,49.3264],[21.961,49.3491],[21.932,49.3464],[21.918,49.3542],[21.9065,49.3528],[21.8934,49.3572],[21.8873,49.369],[21.8755,49.3736],[21.859,49.3686],[21.8476,49.3786],[21.8402,49.3915],[21.8258,49.3908],[21.8174,49.3843],[21.797,49.3785],[21.778,49.356],[21.7662,49.3672],[21.7634,49.3835],[21.7258,49.3992],[21.7235,49.4108],[21.6975,49.4183],[21.6847,49.4114],[21.6589,49.4168],[21.6566,49.4244],[21.6441,49.4313],[21.6309,49.4473],[21.6148,49.4448],[21.6016,49.4353],[21.5837,49.4338],[21.565,49.4412],[21.551,49.4331],[21.5342,49.4354],[21.5241,49.4317],[21.5112,49.4197],[21.4957,49.4296],[21.4854,49.4263],[21.479,49.4158],[21.4562,49.4163],[21.4341,49.4123],[21.4066,49.4266],[21.3987,49.4338],[21.3727,49.4326],[21.3687,49.439],[21.3371,49.4514],[21.3068,49.4484],[21.2775,49.4609],[21.2673,49.4572],[21.2593,49.4467],[21.2407,49.4342],[21.2241,49.4267],[21.2273,49.417],[21.2123,49.408],[21.1921,49.401],[21.1522,49.427],[21.124,49.4366],[21.1137,49.4239],[21.0964,49.4295],[21.0818,49.425],[21.0565,49.4217],[21.0472,49.4169],[21.0543,49.4042],[21.1041,49.3764],[21.0941,49.3651],[21.066,49.3653],[21.0544,49.3618],[21.0439,49.3654],[21.0273,49.3569],[20.9882,49.3271],[20.9941,49.3127],[20.9866,49.3066],[20.9757,49.3095],[20.9403,49.2992],[20.9243,49.299],[20.9105,49.3072],[20.8972,49.3253],[20.8779,49.3203],[20.8824,49.3332],[20.8595,49.3484],[20.8397,49.3349],[20.8259,49.3344],[20.8022,49.3555],[20.7887,49.3608],[20.7792,49.3751],[20.7642,49.3709],[20.7618,49.3834],[20.7475,49.3923],[20.7582,49.4002],[20.7423,49.4038],[20.7461,49.4121],[20.7229,49.4197],[20.6927,49.42],[20.6653,49.4044],[20.6426,49.401],[20.636,49.4085],[20.6113,49.4125],[20.6002,49.3883],[20.58,49.3829],[20.5762,49.3762],[20.5577,49.3781],[20.5467,49.3855],[20.5099,49.3934],[20.5034,49.404],[20.4901,49.4064],[20.4763,49.4141],[20.4642,49.416],[20.4464,49.4119],[20.4296,49.4157],[20.428,49.402],[20.4048,49.3923],[20.3824,49.391],[20.3793,49.4056],[20.3617,49.3982],[20.325,49.403],[20.3243,49.3906],[20.3211,49.3774],[20.3256,49.3713],[20.3229,49.353],[20.3142,49.3435],[20.293,49.3515],[20.2731,49.3514],[20.2661,49.3471],[20.2509,49.3505],[20.2318,49.3463],[20.2219,49.3518],[20.2128,49.3448],[20.1952,49.3423],[20.1842,49.3278],[20.1706,49.3277],[20.1758,49.3141],[20.159,49.3065],[20.146,49.318],[20.1329,49.3006],[20.1287,49.2771],[20.122,49.2679],[20.1022,49.2529],[20.0978,49.2345],[20.1016,49.2227],[20.0872,49.2075],[20.0845,49.1929],[20.0878,49.1836],[20.0756,49.1787],[20.0404,49.197],[20.0205,49.2015],[20.0065,49.2132],[20.0086,49.2201],[19.9816,49.2318],[19.9712,49.23],[19.9193,49.2358],[19.9034,49.231],[19.9019,49.213],[19.887,49.2082],[19.8703,49.1985],[19.8406,49.1937],[19.8295,49.2017],[19.8198,49.1995],[19.8075,49.2057],[19.795,49.1984],[19.7631,49.2076],[19.7584,49.216],[19.7669,49.2226],[19.7663,49.2346],[19.7905,49.2553],[19.7925,49.268],[19.8063,49.2745],[19.8228,49.2768],[19.8098,49.2954],[19.7945,49.296],[19.7926,49.3026],[19.805,49.3227],[19.7955,49.3481],[19.8025,49.3531],[19.8021,49.3703],[19.7925,49.3787],[19.7906,49.4107],[19.7676,49.413],[19.7463,49.4079],[19.7296,49.3917],[19.7143,49.392],[19.6865,49.4028],[19.6628,49.4077],[19.6386,49.4086],[19.6346,49.4125],[19.6474,49.4332],[19.6475,49.4332],[19.6378,49.4405],[19.6411,49.4576],[19.6254,49.4496],[19.6114,49.4469],[19.5974,49.4586],[19.5816,49.458],[19.5816,49.4583],[19.5812,49.4595],[19.5787,49.4624],[19.5752,49.464],[19.5749,49.4642],[19.5732,49.466],[19.5731,49.4667],[19.572,49.4677],[19.5705,49.469],[19.5691,49.4701],[19.5689,49.4702],[19.5574,49.4869],[19.5571,49.4873],[19.5541,49.4897],[19.554,49.4897],[19.5517,49.5074],[19.5304,49.5358],[19.5274,49.5612],[19.5293,49.573],[19.5182,49.5734],[19.5102,49.5814],[19.4972,49.5816],[19.4784,49.588],[19.4684,49.5965],[19.4746,49.6047],[19.4674,49.6138],[19.443,49.6092],[19.4446,49.6005],[19.4096,49.5918],[19.4076,49.5808],[19.4002,49.5742],[19.3714,49.5674],[19.3666,49.5537],[19.3686,49.545],[19.3624,49.5361],[19.347,49.5359],[19.3188,49.5311],[19.3156,49.5366],[19.2929,49.5332],[19.2815,49.5353],[19.2643,49.5324],[19.261,49.5273],[19.2336,49.5109],[19.237,49.5017],[19.2316,49.4878],[19.2209,49.475],[19.2283,49.4637],[19.219,49.4486],[19.2077,49.4518],[19.1965,49.4469],[19.1857,49.4347],[19.1974,49.4146],[19.1876,49.4097],[19.1773,49.414],[19.1534,49.4038],[19.1375,49.41],[19.1224,49.4026],[19.1073,49.4037],[19.0915,49.416],[19.0727,49.418],[19.0539,49.4152],[19.0447,49.4004],[19.027,49.394],[18.9896,49.3984],[18.9799,49.3952],[18.9712,49.4021],[18.9687,49.4133],[18.9857,49.4218],[18.9883,49.4318],[18.9778,49.4405],[18.9739,49.4517],[18.9608,49.4547],[18.9702,49.4768],[18.9605,49.4828],[18.9716,49.5043],[18.9417,49.5189],[18.9128,49.5176],[18.8971,49.5144],[18.8691,49.519],[18.843,49.5185],[18.8373,49.5236],[18.8441,49.5341],[18.8575,49.5379],[18.8592,49.5507],[18.8376,49.5622],[18.8293,49.5949],[18.8232,49.6041],[18.8243,49.6145],[18.8063,49.6513],[18.8101,49.671],[18.8046,49.6789],[18.7806,49.6854],[18.7641,49.6846],[18.7512,49.6769],[18.7355,49.6824],[18.7192,49.6838],[18.7065,49.7044],[18.6937,49.7066],[18.6682,49.7034],[18.6526,49.7077],[18.6252,49.7224],[18.6288,49.7263],[18.6291,49.7473],[18.6149,49.7534],[18.6101,49.7711],[18.5971,49.7847],[18.6,49.7894],[18.593,49.8017],[18.5827,49.8091],[18.5823,49.8181],[18.5694,49.8344],[18.5893,49.8455],[18.5837,49.8523],[18.6039,49.8571],[18.6024,49.8647],[18.5719,49.8722],[18.566,49.8831],[18.5801,49.9055],[18.5745,49.915],[18.559,49.918],[18.5448,49.9259],[18.535,49.9003],[18.5081,49.9028],[18.4847,49.9092],[18.4679,49.9156],[18.4642,49.9218],[18.4443,49.9234],[18.4327,49.9285],[18.4308,49.9382],[18.3921,49.934],[18.3677,49.9368],[18.356,49.9441],[18.3409,49.9257],[18.3333,49.9276],[18.3217,49.9159],[18.2992,49.9238],[18.2792,49.9401],[18.2818,49.9505],[18.278,49.9635],[18.2338,49.971],[18.2206,49.9689],[18.2065,49.9979],[18.1932,49.9946],[18.183,50.0004],[18.168,49.9985],[18.169,49.9864],[18.1538,49.9824],[18.1469,49.9916],[18.1311,49.9981],[18.117,49.9942],[18.1048,50.0009],[18.0933,50.015],[18.103,50.0226],[18.0859,50.0317],[18.0894,50.0441],[18.066,50.0481],[18.0617,50.0591],[18.0498,50.0584],[18.035,50.0658],[18.0052,50.0535],[18.0088,50.0313],[18.0247,50.0388],[18.0434,50.0367],[18.049,50.0275],[18.0463,50.0159],[18.0354,50.011],[18.0066,50.0114],[17.9916,50.0147],[17.9842,50.0055],[17.9731,50.0086],[17.954,50.0051],[17.9229,49.9787],[17.9092,49.9765],[17.8852,49.9793],[17.8686,49.9725],[17.8266,49.9942],[17.8369,50.0036],[17.8277,50.0113],[17.8042,50.0124],[17.7916,50.0192],[17.7779,50.0201],[17.7704,50.0358],[17.7719,50.0459],[17.7568,50.0609],[17.7499,50.0774],[17.7298,50.0899],[17.7309,50.0972],[17.7051,50.1144],[17.6833,50.1173],[17.6766,50.103],[17.6503,50.1108],[17.6391,50.1314],[17.6108,50.1401],[17.5927,50.1599],[17.6012,50.1696],[17.6267,50.1704],[17.6282,50.1716],[17.6282,50.1717],[17.6283,50.1718],[17.6286,50.1719],[17.629,50.1723],[17.6293,50.1726],[17.6293,50.1727],[17.6298,50.1728],[17.6415,50.1755],[17.6423,50.1758],[17.6432,50.1758],[17.6661,50.1779],[17.6773,50.182],[17.6799,50.1827],[17.7021,50.1845],[17.711,50.1955],[17.7104,50.1982],[17.7101,50.1992],[17.7242,50.2066],[17.7346,50.2025],[17.7585,50.2066],[17.7566,50.2214],[17.765,50.2364],[17.7365,50.2505],[17.725,50.2567],[17.7272,50.274],[17.7346,50.2776],[17.7449,50.292],[17.7521,50.2995],[17.7291,50.3034],[17.7225,50.3177],[17.713,50.3226],[17.6869,50.328],[17.6891,50.3019],[17.6684,50.2908],[17.6655,50.2881],[17.6635,50.2869],[17.6586,50.285],[17.6507,50.2777],[17.6173,50.2669],[17.6038,50.2689],[17.5993,50.2703],[17.5987,50.2705],[17.5981,50.2707],[17.5981,50.273],[17.598,50.2733],[17.598,50.2734],[17.5978,50.2737],[17.5977,50.2737],[17.5979,50.2741],[17.5978,50.2744],[17.5978,50.2745],[17.5975,50.2749],[17.5969,50.2754],[17.5942,50.277],[17.5937,50.2771],[17.5932,50.2773],[17.5919,50.2783],[17.5868,50.278],[17.5861,50.278],[17.5799,50.2771],[17.5733,50.275],[17.5648,50.2713],[17.5646,50.271],[17.549,50.2699],[17.5153,50.2746],[17.4956,50.2751],[17.4729,50.27],[17.4578,50.2701],[17.4545,50.2565],[17.4375,50.2517],[17.4207,50.2774],[17.4069,50.2739],[17.3888,50.2828],[17.3661,50.2821],[17.363,50.265],[17.3498,50.2639],[17.3428,50.2809],[17.3482,50.2874],[17.3463,50.2985],[17.3537,50.308],[17.3376,50.3132],[17.3405,50.3227],[17.3278,50.3271],[17.3112,50.3202],[17.2898,50.3175],[17.2638,50.3282],[17.2479,50.3318],[17.2254,50.3447],[17.2011,50.364],[17.1991,50.3751],[17.2038,50.3861],[17.1841,50.3899],[17.1795,50.3862],[17.1433,50.3804],[17.1224,50.3943],[17.1111,50.3937],[17.1108,50.405],[17.085,50.4058],[17.081,50.4022],[17.0531,50.4069],[17.0243,50.4214],[17.0135,50.4186],[16.9983,50.4277],[16.9825,50.4197],[16.9712,50.4214],[16.9461,50.434],[16.927,50.4384],[16.9079,50.4494],[16.881,50.4423],[16.8807,50.4362],[16.8605,50.4112],[16.8718,50.4031],[16.9082,50.3911],[16.9195,50.3687],[16.9156,50.3628],[16.9298,50.3458],[16.9361,50.3435],[16.9343,50.3308],[16.9407,50.3198],[16.9559,50.3122],[17.0026,50.3021],[17.02,50.2783],[17.0166,50.2673],[17.0016,50.2564],[17.0107,50.2427],[17.0283,50.23],[17.0148,50.2194],[16.9985,50.2159],[16.9927,50.2263],[16.9806,50.2361],[16.9763,50.2449],[16.9632,50.2391],[16.9655,50.2313],[16.956,50.2225],[16.927,50.223],[16.9174,50.2262],[16.8875,50.2156],[16.8827,50.1998],[16.8716,50.197],[16.8469,50.2073],[16.8361,50.1989],[16.8099,50.1893],[16.8007,50.1801],[16.7974,50.1657],[16.7833,50.1456],[16.7617,50.1361],[16.7466,50.1351],[16.7294,50.1172],[16.7239,50.1052],[16.7036,50.0963],[16.6781,50.1038],[16.6409,50.1122],[16.6138,50.1253],[16.6029,50.1347],[16.5953,50.1405],[16.5802,50.1434],[16.5855,50.152],[16.5608,50.1643],[16.5582,50.174],[16.5638,50.18],[16.5544,50.1965],[16.5608,50.2053],[16.5483,50.2297],[16.5376,50.239],[16.5228,50.2394],[16.4975,50.2598],[16.4667,50.2875],[16.4646,50.2957],[16.4482,50.305],[16.4322,50.3238],[16.4321,50.324],[16.4097,50.3243],[16.3993,50.3192],[16.3832,50.3288],[16.3752,50.3423],[16.3612,50.3536],[16.368,50.367],[16.3608,50.3795],[16.3373,50.3782],[16.3263,50.3821],[16.3023,50.3822],[16.2865,50.3677],[16.2677,50.3794],[16.2631,50.3936],[16.2381,50.4141],[16.2218,50.4069],[16.2096,50.427],[16.1983,50.4288],[16.1988,50.4418],[16.2052,50.4487],[16.2197,50.4519],[16.2313,50.4595],[16.2557,50.4676],[16.2493,50.4719],[16.2685,50.4829],[16.2941,50.4792],[16.3006,50.4908],[16.3124,50.4941],[16.3117,50.5062],[16.319,50.5079],[16.3438,50.4958],[16.3604,50.5012],[16.3739,50.5164],[16.4018,50.5299],[16.3874,50.5418],[16.4109,50.5479],[16.4034,50.5663],[16.4264,50.5708],[16.4449,50.5796],[16.4435,50.5863],[16.423,50.6063],[16.4032,50.618],[16.3944,50.6187],[16.3625,50.6483],[16.3512,50.6478],[16.3431,50.6615],[16.3221,50.6666],[16.305,50.6591],[16.2818,50.6614],[16.28,50.6681],[16.2584,50.6671],[16.2339,50.6711],[16.2218,50.6502],[16.2205,50.6365],[16.1997,50.6311],[16.1988,50.6307],[16.1876,50.6272],[16.1704,50.6453],[16.1484,50.6533],[16.1395,50.6508],[16.1258,50.6606],[16.1037,50.6634],[16.0951,50.653],[16.0676,50.6398],[16.0624,50.6317],[16.0584,50.6131],[16.0426,50.6142],[16.0292,50.6038],[16.0062,50.606],[15.9864,50.6147],[15.9984,50.6229],[16.0148,50.6285],[16.001,50.6453],[16.0042,50.6584],[15.9897,50.6783],[15.9886,50.6849],[15.9666,50.6918],[15.9384,50.6867],[15.9345,50.687],[15.934,50.6869],[15.9322,50.6865],[15.9311,50.6859],[15.8889,50.6757],[15.8799,50.6712],[15.861,50.6744],[15.8634,50.6802],[15.8517,50.707],[15.8299,50.7247],[15.8318,50.7428],[15.8143,50.7554],[15.7915,50.7527],[15.7792,50.7423],[15.7598,50.7436],[15.735,50.7361],[15.7234,50.7398],[15.7057,50.7373],[15.6886,50.7428],[15.6839,50.7526],[15.6593,50.7599],[15.6486,50.7595],[15.6221,50.7652],[15.6164,50.7723],[15.6018,50.7768],[15.5788,50.779],[15.564,50.7761],[15.5457,50.7805],[15.5243,50.777],[15.511,50.7908],[15.4937,50.7882],[15.4805,50.7908],[15.4502,50.8071],[15.4388,50.8091],[15.4208,50.8032],[15.4151,50.7928],[15.3921,50.7759],[15.3748,50.7776],[15.374,50.7887],[15.3662,50.8018],[15.3743,50.8111],[15.3747,50.8209],[15.3676,50.8376],[15.3522,50.8515],[15.3098,50.8614],[15.2771,50.891],[15.2705,50.9121],[15.268,50.9177],[15.2678,50.9325],[15.29,50.9474],[15.292,50.9535],[15.2739,50.9629],[15.2741,50.9795],[15.2485,50.9797],[15.2372,50.9945],[15.2185,50.9955],[15.2091,50.9918],[15.2087,50.9919],[15.2029,50.9915],[15.1893,50.9802],[15.1783,50.9847],[15.1718,51.02],[15.1444,51.0134],[15.135,50.9991],[15.1361,50.9916],[15.1269,50.9912],[15.122,50.9926],[15.12,50.9932],[15.1128,50.9922],[15.1094,50.9918],[15.1064,50.9916],[15.1028,50.9932],[15.1008,50.9948],[15.1007,50.9948],[15.1005,50.9952],[15.1005,50.996],[15.1003,50.9963],[15.0989,50.9977],[15.0989,50.9978],[15.099,50.9982],[15.0992,50.9987],[15.0969,51.0019],[15.0984,51.004],[15.1052,51.0067],[15.1058,51.0072],[15.106,51.0072],[15.1061,51.0071],[15.1072,51.0082],[15.1071,51.0091],[15.1071,51.0098],[15.1061,51.0103],[15.1039,51.0113],[15.1036,51.0114],[15.1037,51.0116],[15.1026,51.0121],[15.1026,51.0122],[15.1025,51.0122],[15.1011,51.0125],[15.0941,51.0125],[15.0936,51.0126],[15.0788,51.0137],[15.077,51.0145],[15.0763,51.0166],[15.0577,51.0225],[15.0557,51.012],[15.0386,51.0121],[15.03,51.022],[15.0219,51.0221],[15.0161,51.0198],[15.0161,51.0192],[15.015,51.0168],[15.0129,51.0158],[15.0128,51.0157],[15.0065,51.0137],[14.9854,51.0108],[14.9682,50.99],[14.99122,50.98081],[14.994,50.982],[14.9947,50.9824],[14.996,50.9825],[14.9981,50.9832],[14.9983,50.9834],[15.0054,50.9862],[15.0057,50.9863],[15.0173,50.9668],[15.0108,50.963],[15.0154,50.9496],[15.0104,50.9381],[14.9894,50.9216],[14.9989,50.9129],[14.9962,50.9006],[15.0021,50.869],[14.9859,50.8691],[14.9593,50.8619],[14.9374,50.8694],[14.9002,50.876],[14.8973,50.8674],[14.8756,50.877],[14.8639,50.8706],[14.8405,50.869],[14.8234,50.8706],[14.8196,50.8851],[14.8434,50.9007],[14.8516,50.9106],[14.8659,50.9166],[14.8753,50.9308],[14.8966,50.9406],[14.8931,50.9501],[14.9043,50.9684],[14.9174,50.9739],[14.9199,50.9887],[14.9381,51.0117],[14.9354,51.0206],[14.9477,51.0283],[14.9537,51.0467],[14.9647,51.0501],[14.9676,51.0711],[14.9795,51.0774],[14.9836,51.0902],[14.9826,51.1134],[14.9978,51.1228],[14.9908,51.1415],[15.001,51.1499],[14.9931,51.1624],[15.0088,51.1826],[15.0047,51.1909],[15.0182,51.221],[15.0164,51.2277],[15.0379,51.244],[15.0233,51.2501],[15.0371,51.2577],[15.0329,51.2944],[15.013,51.3008],[15.0086,51.3166],[14.9924,51.3237],[14.9778,51.3417],[14.9742,51.364],[14.9779,51.3756],[14.9647,51.3868],[14.9682,51.4021],[14.9589,51.4109],[14.967,51.4162],[14.9661,51.4268],[14.9742,51.4419],[14.9668,51.446],[14.947,51.4721],[14.9267,51.4732],[14.9224,51.4823],[14.8978,51.4821],[14.8875,51.4879],[14.8701,51.4853],[14.8528,51.4893],[14.8201,51.5074],[14.8135,51.5059],[14.7967,51.5176],[14.7665,51.5189],[14.7367,51.5256],[14.7291,51.5314],[14.7289,51.5504],[14.7112,51.5627],[14.7269,51.575],[14.7304,51.5841],[14.7505,51.5949],[14.7651,51.6078],[14.7641,51.6174],[14.7541,51.6268],[14.7559,51.6457],[14.7511,51.6516],[14.7577,51.6602],[14.7468,51.6762],[14.7014,51.7048],[14.6892,51.7093],[14.6761,51.7236],[14.6681,51.7258],[14.6567,51.7405],[14.6627,51.7584],[14.6515,51.7607],[14.6551,51.7736],[14.6463,51.7943],[14.6313,51.8017],[14.6049,51.805],[14.591,51.8199],[14.5905,51.8387],[14.6124,51.8576],[14.623,51.8578],[14.6526,51.8744],[14.6559,51.8848],[14.6734,51.8895],[14.6936,51.9013],[14.6913,51.9081],[14.7055,51.9242],[14.7035,51.9313],[14.7188,51.9413],[14.7209,51.953],[14.7073,51.9657],[14.707,51.9796],[14.7162,51.9824],[14.7217,51.9951],[14.714,52.0037],[14.7416,52.0242],[14.7499,52.042],[14.7452,52.0539],[14.7573,52.0607],[14.7584,52.0674],[14.7413,52.0852],[14.7243,52.0935],[14.6947,52.1016],[14.6816,52.1166],[14.684,52.1258],[14.6791,52.1435],[14.7031,52.1643],[14.7053,52.1735],[14.6854,52.1924],[14.6885,52.1989],[14.7026,52.2061],[14.7117,52.2192],[14.7149,52.2368],[14.6927,52.2557],[14.6591,52.2623],[14.6465,52.2626],[14.6171,52.2715],[14.5926,52.2747],[14.5889,52.2821],[14.5758,52.2886],[14.576,52.2971],[14.5849,52.3065],[14.5727,52.3239],[14.561,52.331],[14.5631,52.3381],[14.5536,52.3499],[14.5521,52.3741],[14.535,52.3935],[14.5361,52.4014],[14.547,52.4141],[14.5476,52.4317],[14.562,52.4396],[14.5793,52.4417],[14.6101,52.4652],[14.6122,52.4758],[14.6331,52.4901],[14.6317,52.5018],[14.616,52.5081],[14.605,52.5276],[14.6185,52.5569],[14.6398,52.5702],[14.6343,52.5768],[14.6137,52.5866],[14.6095,52.5973],[14.5962,52.6107],[14.564,52.6247],[14.5053,52.6434],[14.463,52.6627],[14.4578,52.6739],[14.4356,52.68],[14.424,52.6962],[14.4135,52.7008],[14.4049,52.7114],[14.3837,52.7256],[14.3735,52.7367],[14.3609,52.7406],[14.3525,52.7507],[14.3217,52.7626],[14.305,52.7655],[14.2804,52.7737],[14.2301,52.805],[14.2175,52.8169],[14.1524,52.8242],[14.1301,52.8283],[14.1237,52.8454]]]]}},{"type":"Feature","properties":{"rola":"obrys"},"geometry":{"type":"MultiLineString","coordinates":[[[14.1237,52.8454],[14.1301,52.8283],[14.1524,52.8242],[14.2175,52.8169],[14.2301,52.805],[14.2804,52.7737],[14.305,52.7655],[14.3217,52.7626],[14.3525,52.7507],[14.3609,52.7406],[14.3735,52.7367],[14.3837,52.7256],[14.4049,52.7114],[14.4135,52.7008],[14.424,52.6962],[14.4356,52.68],[14.4578,52.6739],[14.463,52.6627],[14.5053,52.6434],[14.564,52.6247],[14.5962,52.6107],[14.6095,52.5973],[14.6137,52.5866],[14.6343,52.5768],[14.6398,52.5702],[14.6185,52.5569],[14.605,52.5276],[14.616,52.5081],[14.6317,52.5018],[14.6331,52.4901],[14.6122,52.4758],[14.6101,52.4652],[14.5793,52.4417],[14.562,52.4396],[14.5476,52.4317],[14.547,52.4141],[14.5361,52.4014],[14.535,52.3935],[14.5521,52.3741],[14.5536,52.3499],[14.5631,52.3381],[14.561,52.331],[14.5727,52.3239],[14.5849,52.3065],[14.576,52.2971],[14.5758,52.2886],[14.5889,52.2821],[14.5926,52.2747],[14.6171,52.2715],[14.6465,52.2626],[14.6591,52.2623],[14.6927,52.2557],[14.7149,52.2368],[14.7117,52.2192],[14.7026,52.2061],[14.6885,52.1989],[14.6854,52.1924],[14.7053,52.1735],[14.7031,52.1643],[14.6791,52.1435],[14.684,52.1258],[14.6816,52.1166],[14.6947,52.1016],[14.7243,52.0935],[14.7413,52.0852],[14.7584,52.0674],[14.7573,52.0607],[14.7452,52.0539],[14.7499,52.042],[14.7416,52.0242],[14.714,52.0037],[14.7217,51.9951],[14.7162,51.9824],[14.707,51.9796],[14.7073,51.9657],[14.7209,51.953],[14.7188,51.9413],[14.7035,51.9313],[14.7055,51.9242],[14.6913,51.9081],[14.6936,51.9013],[14.6734,51.8895],[14.6559,51.8848],[14.6526,51.8744],[14.623,51.8578],[14.6124,51.8576],[14.5905,51.8387],[14.591,51.8199],[14.6049,51.805],[14.6313,51.8017],[14.6463,51.7943],[14.6551,51.7736],[14.6515,51.7607],[14.6627,51.7584],[14.6567,51.7405],[14.6681,51.7258],[14.6761,51.7236],[14.6892,51.7093],[14.7014,51.7048],[14.7468,51.6762],[14.7577,51.6602],[14.7511,51.6516],[14.7559,51.6457],[14.7541,51.6268],[14.7641,51.6174],[14.7651,51.6078],[14.7505,51.5949],[14.7304,51.5841],[14.7269,51.575],[14.7112,51.5627],[14.7289,51.5504],[14.7291,51.5314],[14.7367,51.5256],[14.7665,51.5189],[14.7967,51.5176],[14.8135,51.5059],[14.8201,51.5074],[14.8528,51.4893],[14.8701,51.4853],[14.8875,51.4879],[14.8978,51.4821],[14.9224,51.4823],[14.9267,51.4732],[14.947,51.4721],[14.9668,51.446],[14.9742,51.4419],[14.9661,51.4268],[14.967,51.4162],[14.9589,51.4109],[14.9682,51.4021],[14.9647,51.3868],[14.9779,51.3756],[14.9742,51.364],[14.9778,51.3417],[14.9924,51.3237],[15.0086,51.3166],[15.013,51.3008],[15.0329,51.2944],[15.0371,51.2577],[15.0233,51.2501],[15.0379,51.244],[15.0164,51.2277],[15.0182,51.221],[15.0047,51.1909],[15.0088,51.1826],[14.9931,51.1624],[15.001,51.1499],[14.9908,51.1415],[14.9978,51.1228],[14.9826,51.1134],[14.9836,51.0902],[14.9795,51.0774],[14.9676,51.0711],[14.9647,51.0501],[14.9537,51.0467],[14.9477,51.0283],[14.9354,51.0206],[14.9381,51.0117],[14.9199,50.9887],[14.9174,50.9739],[14.9043,50.9684],[14.8931,50.9501],[14.8966,50.9406],[14.8753,50.9308],[14.8659,50.9166],[14.8516,50.9106],[14.8434,50.9007],[14.8196,50.8851],[14.8234,50.8706],[14.8405,50.869],[14.8639,50.8706],[14.8756,50.877],[14.8973,50.8674],[14.9002,50.876],[14.9374,50.8694],[14.9593,50.8619],[14.9859,50.8691],[15.0021,50.869],[14.9962,50.9006],[14.9989,50.9129],[14.9894,50.9216],[15.0104,50.9381],[15.0154,50.9496],[15.0108,50.963],[15.0173,50.9668],[15.0057,50.9863],[15.0054,50.9862],[14.9983,50.9834],[14.9981,50.9832],[14.996,50.9825],[14.9947,50.9824],[14.994,50.982],[14.99122,50.98081],[14.9682,50.99],[14.9854,51.0108],[15.0065,51.0137],[15.0128,51.0157],[15.0129,51.0158],[15.015,51.0168],[15.0161,51.0192],[15.0161,51.0198],[15.0219,51.0221],[15.03,51.022],[15.0386,51.0121],[15.0557,51.012],[15.0577,51.0225],[15.0763,51.0166],[15.077,51.0145],[15.0788,51.0137],[15.0936,51.0126],[15.0941,51.0125],[15.1011,51.0125],[15.1025,51.0122],[15.1026,51.0122],[15.1026,51.0121],[15.1037,51.0116],[15.1036,51.0114],[15.1039,51.0113],[15.1061,51.0103],[15.1071,51.0098],[15.1071,51.0091],[15.1072,51.0082],[15.1061,51.0071],[15.106,51.0072],[15.1058,51.0072],[15.1052,51.0067],[15.0984,51.004],[15.0969,51.0019],[15.0992,50.9987],[15.099,50.9982],[15.0989,50.9978],[15.0989,50.9977],[15.1003,50.9963],[15.1005,50.996],[15.1005,50.9952],[15.1007,50.9948],[15.1008,50.9948],[15.1028,50.9932],[15.1064,50.9916],[15.1094,50.9918],[15.1128,50.9922],[15.12,50.9932],[15.122,50.9926],[15.1269,50.9912],[15.1361,50.9916],[15.135,50.9991],[15.1444,51.0134],[15.1718,51.02],[15.1783,50.9847],[15.1893,50.9802],[15.2029,50.9915],[15.2087,50.9919],[15.2091,50.9918],[15.2185,50.9955],[15.2372,50.9945],[15.2485,50.9797],[15.2741,50.9795],[15.2739,50.9629],[15.292,50.9535],[15.29,50.9474],[15.2678,50.9325],[15.268,50.9177],[15.2705,50.9121],[15.2771,50.891],[15.3098,50.8614],[15.3522,50.8515],[15.3676,50.8376],[15.3747,50.8209],[15.3743,50.8111],[15.3662,50.8018],[15.374,50.7887],[15.3748,50.7776],[15.3921,50.7759],[15.4151,50.7928],[15.4208,50.8032],[15.4388,50.8091],[15.4502,50.8071],[15.4805,50.7908],[15.4937,50.7882],[15.511,50.7908],[15.5243,50.777],[15.5457,50.7805],[15.564,50.7761],[15.5788,50.779],[15.6018,50.7768],[15.6164,50.7723],[15.6221,50.7652],[15.6486,50.7595],[15.6593,50.7599],[15.6839,50.7526],[15.6886,50.7428],[15.7057,50.7373],[15.7234,50.7398],[15.735,50.7361],[15.7598,50.7436],[15.7792,50.7423],[15.7915,50.7527],[15.8143,50.7554],[15.8318,50.7428],[15.8299,50.7247],[15.8517,50.707],[15.8634,50.6802],[15.861,50.6744],[15.8799,50.6712],[15.8889,50.6757],[15.9311,50.6859],[15.9322,50.6865],[15.934,50.6869],[15.9345,50.687],[15.9384,50.6867],[15.9666,50.6918],[15.9886,50.6849],[15.9897,50.6783],[16.0042,50.6584],[16.001,50.6453],[16.0148,50.6285],[15.9984,50.6229],[15.9864,50.6147],[16.0062,50.606],[16.0292,50.6038],[16.0426,50.6142],[16.0584,50.6131],[16.0624,50.6317],[16.0676,50.6398],[16.0951,50.653],[16.1037,50.6634],[16.1258,50.6606],[16.1395,50.6508],[16.1484,50.6533],[16.1704,50.6453],[16.1876,50.6272],[16.1988,50.6307],[16.1997,50.6311],[16.2205,50.6365],[16.2218,50.6502],[16.2339,50.6711],[16.2584,50.6671],[16.28,50.6681],[16.2818,50.6614],[16.305,50.6591],[16.3221,50.6666],[16.3431,50.6615],[16.3512,50.6478],[16.3625,50.6483],[16.3944,50.6187],[16.4032,50.618],[16.423,50.6063],[16.4435,50.5863],[16.4449,50.5796],[16.4264,50.5708],[16.4034,50.5663],[16.4109,50.5479],[16.3874,50.5418],[16.4018,50.5299],[16.3739,50.5164],[16.3604,50.5012],[16.3438,50.4958],[16.319,50.5079],[16.3117,50.5062],[16.3124,50.4941],[16.3006,50.4908],[16.2941,50.4792],[16.2685,50.4829],[16.2493,50.4719],[16.2557,50.4676],[16.2313,50.4595],[16.2197,50.4519],[16.2052,50.4487],[16.1988,50.4418],[16.1983,50.4288],[16.2096,50.427],[16.2218,50.4069],[16.2381,50.4141],[16.2631,50.3936],[16.2677,50.3794],[16.2865,50.3677],[16.3023,50.3822],[16.3263,50.3821],[16.3373,50.3782],[16.3608,50.3795],[16.368,50.367],[16.3612,50.3536],[16.3752,50.3423],[16.3832,50.3288],[16.3993,50.3192],[16.4097,50.3243],[16.4321,50.324],[16.4322,50.3238],[16.4482,50.305],[16.4646,50.2957],[16.4667,50.2875],[16.4975,50.2598],[16.5228,50.2394],[16.5376,50.239],[16.5483,50.2297],[16.5608,50.2053],[16.5544,50.1965],[16.5638,50.18],[16.5582,50.174],[16.5608,50.1643],[16.5855,50.152],[16.5802,50.1434],[16.5953,50.1405],[16.6029,50.1347],[16.6138,50.1253],[16.6409,50.1122],[16.6781,50.1038],[16.7036,50.0963],[16.7239,50.1052],[16.7294,50.1172],[16.7466,50.1351],[16.7617,50.1361],[16.7833,50.1456],[16.7974,50.1657],[16.8007,50.1801],[16.8099,50.1893],[16.8361,50.1989],[16.8469,50.2073],[16.8716,50.197],[16.8827,50.1998],[16.8875,50.2156],[16.9174,50.2262],[16.927,50.223],[16.956,50.2225],[16.9655,50.2313],[16.9632,50.2391],[16.9763,50.2449],[16.9806,50.2361],[16.9927,50.2263],[16.9985,50.2159],[17.0148,50.2194],[17.0283,50.23],[17.0107,50.2427],[17.0016,50.2564],[17.0166,50.2673],[17.02,50.2783],[17.0026,50.3021],[16.9559,50.3122],[16.9407,50.3198],[16.9343,50.3308],[16.9361,50.3435],[16.9298,50.3458],[16.9156,50.3628],[16.9195,50.3687],[16.9082,50.3911],[16.8718,50.4031],[16.8605,50.4112],[16.8807,50.4362],[16.881,50.4423],[16.9079,50.4494],[16.927,50.4384],[16.9461,50.434],[16.9712,50.4214],[16.9825,50.4197],[16.9983,50.4277],[17.0135,50.4186],[17.0243,50.4214],[17.0531,50.4069],[17.081,50.4022],[17.085,50.4058],[17.1108,50.405],[17.1111,50.3937],[17.1224,50.3943],[17.1433,50.3804],[17.1795,50.3862],[17.1841,50.3899],[17.2038,50.3861],[17.1991,50.3751],[17.2011,50.364],[17.2254,50.3447],[17.2479,50.3318],[17.2638,50.3282],[17.2898,50.3175],[17.3112,50.3202],[17.3278,50.3271],[17.3405,50.3227],[17.3376,50.3132],[17.3537,50.308],[17.3463,50.2985],[17.3482,50.2874],[17.3428,50.2809],[17.3498,50.2639],[17.363,50.265],[17.3661,50.2821],[17.3888,50.2828],[17.4069,50.2739],[17.4207,50.2774],[17.4375,50.2517],[17.4545,50.2565],[17.4578,50.2701],[17.4729,50.27],[17.4956,50.2751],[17.5153,50.2746],[17.549,50.2699],[17.5646,50.271],[17.5648,50.2713],[17.5733,50.275],[17.5799,50.2771],[17.5861,50.278],[17.5868,50.278],[17.5919,50.2783],[17.5932,50.2773],[17.5937,50.2771],[17.5942,50.277],[17.5969,50.2754],[17.5975,50.2749],[17.5978,50.2745],[17.5978,50.2744],[17.5979,50.2741],[17.5977,50.2737],[17.5978,50.2737],[17.598,50.2734],[17.598,50.2733],[17.5981,50.273],[17.5981,50.2707],[17.5987,50.2705],[17.5993,50.2703],[17.6038,50.2689],[17.6173,50.2669],[17.6507,50.2777],[17.6586,50.285],[17.6635,50.2869],[17.6655,50.2881],[17.6684,50.2908],[17.6891,50.3019],[17.6869,50.328],[17.713,50.3226],[17.7225,50.3177],[17.7291,50.3034],[17.7521,50.2995],[17.7449,50.292],[17.7346,50.2776],[17.7272,50.274],[17.725,50.2567],[17.7365,50.2505],[17.765,50.2364],[17.7566,50.2214],[17.7585,50.2066],[17.7346,50.2025],[17.7242,50.2066],[17.7101,50.1992],[17.7104,50.1982],[17.711,50.1955],[17.7021,50.1845],[17.6799,50.1827],[17.6773,50.182],[17.6661,50.1779],[17.6432,50.1758],[17.6423,50.1758],[17.6415,50.1755],[17.6298,50.1728],[17.6293,50.1727],[17.6293,50.1726],[17.629,50.1723],[17.6286,50.1719],[17.6283,50.1718],[17.6282,50.1717],[17.6282,50.1716],[17.6267,50.1704],[17.6012,50.1696],[17.5927,50.1599],[17.6108,50.1401],[17.6391,50.1314],[17.6503,50.1108],[17.6766,50.103],[17.6833,50.1173],[17.7051,50.1144],[17.7309,50.0972],[17.7298,50.0899],[17.7499,50.0774],[17.7568,50.0609],[17.7719,50.0459],[17.7704,50.0358],[17.7779,50.0201],[17.7916,50.0192],[17.8042,50.0124],[17.8277,50.0113],[17.8369,50.0036],[17.8266,49.9942],[17.8686,49.9725],[17.8852,49.9793],[17.9092,49.9765],[17.9229,49.9787],[17.954,50.0051],[17.9731,50.0086],[17.9842,50.0055],[17.9916,50.0147],[18.0066,50.0114],[18.0354,50.011],[18.0463,50.0159],[18.049,50.0275],[18.0434,50.0367],[18.0247,50.0388],[18.0088,50.0313],[18.0052,50.0535],[18.035,50.0658],[18.0498,50.0584],[18.0617,50.0591],[18.066,50.0481],[18.0894,50.0441],[18.0859,50.0317],[18.103,50.0226],[18.0933,50.015],[18.1048,50.0009],[18.117,49.9942],[18.1311,49.9981],[18.1469,49.9916],[18.1538,49.9824],[18.169,49.9864],[18.168,49.9985],[18.183,50.0004],[18.1932,49.9946],[18.2065,49.9979],[18.2206,49.9689],[18.2338,49.971],[18.278,49.9635],[18.2818,49.9505],[18.2792,49.9401],[18.2992,49.9238],[18.3217,49.9159],[18.3333,49.9276],[18.3409,49.9257],[18.356,49.9441],[18.3677,49.9368],[18.3921,49.934],[18.4308,49.9382],[18.4327,49.9285],[18.4443,49.9234],[18.4642,49.9218],[18.4679,49.9156],[18.4847,49.9092],[18.5081,49.9028],[18.535,49.9003],[18.5448,49.9259],[18.559,49.918],[18.5745,49.915],[18.5801,49.9055],[18.566,49.8831],[18.5719,49.8722],[18.6024,49.8647],[18.6039,49.8571],[18.5837,49.8523],[18.5893,49.8455],[18.5694,49.8344],[18.5823,49.8181],[18.5827,49.8091],[18.593,49.8017],[18.6,49.7894],[18.5971,49.7847],[18.6101,49.7711],[18.6149,49.7534],[18.6291,49.7473],[18.6288,49.7263],[18.6252,49.7224],[18.6526,49.7077],[18.6682,49.7034],[18.6937,49.7066],[18.7065,49.7044],[18.7192,49.6838],[18.7355,49.6824],[18.7512,49.6769],[18.7641,49.6846],[18.7806,49.6854],[18.8046,49.6789],[18.8101,49.671],[18.8063,49.6513],[18.8243,49.6145],[18.8232,49.6041],[18.8293,49.5949],[18.8376,49.5622],[18.8592,49.5507],[18.8575,49.5379],[18.8441,49.5341],[18.8373,49.5236],[18.843,49.5185],[18.8691,49.519],[18.8971,49.5144],[18.9128,49.5176],[18.9417,49.5189],[18.9716,49.5043],[18.9605,49.4828],[18.9702,49.4768],[18.9608,49.4547],[18.9739,49.4517],[18.9778,49.4405],[18.9883,49.4318],[18.9857,49.4218],[18.9687,49.4133],[18.9712,49.4021],[18.9799,49.3952],[18.9896,49.3984],[19.027,49.394],[19.0447,49.4004],[19.0539,49.4152],[19.0727,49.418],[19.0915,49.416],[19.1073,49.4037],[19.1224,49.4026],[19.1375,49.41],[19.1534,49.4038],[19.1773,49.414],[19.1876,49.4097],[19.1974,49.4146],[19.1857,49.4347],[19.1965,49.4469],[19.2077,49.4518],[19.219,49.4486],[19.2283,49.4637],[19.2209,49.475],[19.2316,49.4878],[19.237,49.5017],[19.2336,49.5109],[19.261,49.5273],[19.2643,49.5324],[19.2815,49.5353],[19.2929,49.5332],[19.3156,49.5366],[19.3188,49.5311],[19.347,49.5359],[19.3624,49.5361],[19.3686,49.545],[19.3666,49.5537],[19.3714,49.5674],[19.4002,49.5742],[19.4076,49.5808],[19.4096,49.5918],[19.4446,49.6005],[19.443,49.6092],[19.4674,49.6138],[19.4746,49.6047],[19.4684,49.5965],[19.4784,49.588],[19.4972,49.5816],[19.5102,49.5814],[19.5182,49.5734],[19.5293,49.573],[19.5274,49.5612],[19.5304,49.5358],[19.5517,49.5074],[19.554,49.4897],[19.5541,49.4897],[19.5571,49.4873],[19.5574,49.4869],[19.5689,49.4702],[19.5691,49.4701],[19.5705,49.469],[19.572,49.4677],[19.5731,49.4667],[19.5732,49.466],[19.5749,49.4642],[19.5752,49.464],[19.5787,49.4624],[19.5812,49.4595],[19.5816,49.4583],[19.5816,49.458],[19.5974,49.4586],[19.6114,49.4469],[19.6254,49.4496],[19.6411,49.4576],[19.6378,49.4405],[19.6475,49.4332],[19.6474,49.4332],[19.6346,49.4125],[19.6386,49.4086],[19.6628,49.4077],[19.6865,49.4028],[19.7143,49.392],[19.7296,49.3917],[19.7463,49.4079],[19.7676,49.413],[19.7906,49.4107],[19.7925,49.3787],[19.8021,49.3703],[19.8025,49.3531],[19.7955,49.3481],[19.805,49.3227],[19.7926,49.3026],[19.7945,49.296],[19.8098,49.2954],[19.8228,49.2768],[19.8063,49.2745],[19.7925,49.268],[19.7905,49.2553],[19.7663,49.2346],[19.7669,49.2226],[19.7584,49.216],[19.7631,49.2076],[19.795,49.1984],[19.8075,49.2057],[19.8198,49.1995],[19.8295,49.2017],[19.8406,49.1937],[19.8703,49.1985],[19.887,49.2082],[19.9019,49.213],[19.9034,49.231],[19.9193,49.2358],[19.9712,49.23],[19.9816,49.2318],[20.0086,49.2201],[20.0065,49.2132],[20.0205,49.2015],[20.0404,49.197],[20.0756,49.1787],[20.0878,49.1836],[20.0845,49.1929],[20.0872,49.2075],[20.1016,49.2227],[20.0978,49.2345],[20.1022,49.2529],[20.122,49.2679],[20.1287,49.2771],[20.1329,49.3006],[20.146,49.318],[20.159,49.3065],[20.1758,49.3141],[20.1706,49.3277],[20.1842,49.3278],[20.1952,49.3423],[20.2128,49.3448],[20.2219,49.3518],[20.2318,49.3463],[20.2509,49.3505],[20.2661,49.3471],[20.2731,49.3514],[20.293,49.3515],[20.3142,49.3435],[20.3229,49.353],[20.3256,49.3713],[20.3211,49.3774],[20.3243,49.3906],[20.325,49.403],[20.3617,49.3982],[20.3793,49.4056],[20.3824,49.391],[20.4048,49.3923],[20.428,49.402],[20.4296,49.4157],[20.4464,49.4119],[20.4642,49.416],[20.4763,49.4141],[20.4901,49.4064],[20.5034,49.404],[20.5099,49.3934],[20.5467,49.3855],[20.5577,49.3781],[20.5762,49.3762],[20.58,49.3829],[20.6002,49.3883],[20.6113,49.4125],[20.636,49.4085],[20.6426,49.401],[20.6653,49.4044],[20.6927,49.42],[20.7229,49.4197],[20.7461,49.4121],[20.7423,49.4038],[20.7582,49.4002],[20.7475,49.3923],[20.7618,49.3834],[20.7642,49.3709],[20.7792,49.3751],[20.7887,49.3608],[20.8022,49.3555],[20.8259,49.3344],[20.8397,49.3349],[20.8595,49.3484],[20.8824,49.3332],[20.8779,49.3203],[20.8972,49.3253],[20.9105,49.3072],[20.9243,49.299],[20.9403,49.2992],[20.9757,49.3095],[20.9866,49.3066],[20.9941,49.3127],[20.9882,49.3271],[21.0273,49.3569],[21.0439,49.3654],[21.0544,49.3618],[21.066,49.3653],[21.0941,49.3651],[21.1041,49.3764],[21.0543,49.4042],[21.0472,49.4169],[21.0565,49.4217],[21.0818,49.425],[21.0964,49.4295],[21.1137,49.4239],[21.124,49.4366],[21.1522,49.427],[21.1921,49.401],[21.2123,49.408],[21.2273,49.417],[21.2241,49.4267],[21.2407,49.4342],[21.2593,49.4467],[21.2673,49.4572],[21.2775,49.4609],[21.3068,49.4484],[21.3371,49.4514],[21.3687,49.439],[21.3727,49.4326],[21.3987,49.4338],[21.4066,49.4266],[21.4341,49.4123],[21.4562,49.4163],[21.479,49.4158],[21.4854,49.4263],[21.4957,49.4296],[21.5112,49.4197],[21.5241,49.4317],[21.5342,49.4354],[21.551,49.4331],[21.565,49.4412],[21.5837,49.4338],[21.6016,49.4353],[21.6148,49.4448],[21.6309,49.4473],[21.6441,49.4313],[21.6566,49.4244],[21.6589,49.4168],[21.6847,49.4114],[21.6975,49.4183],[21.7235,49.4108],[21.7258,49.3992],[21.7634,49.3835],[21.7662,49.3672],[21.778,49.356],[21.797,49.3785],[21.8174,49.3843],[21.8258,49.3908],[21.8402,49.3915],[21.8476,49.3786],[21.859,49.3686],[21.8755,49.3736],[21.8873,49.369],[21.8934,49.3572],[21.9065,49.3528],[21.918,49.3542],[21.932,49.3464],[21.961,49.3491],[21.9774,49.3264],[21.9832,49.3104],[22.0107,49.2895],[22.0336,49.2791],[22.0331,49.2647],[22.0408,49.2584],[22.039,49.245],[22.0302,49.2255],[22.0506,49.2163],[22.078,49.2088],[22.1276,49.2005],[22.1438,49.2005],[22.1429,49.1936],[22.1759,49.1831],[22.193,49.1744],[22.2096,49.1825],[22.2306,49.1807],[22.2359,49.1685],[22.2278,49.1635],[22.2246,49.153],[22.2462,49.1533],[22.2818,49.1421],[22.2972,49.1415],[22.3205,49.1356],[22.3346,49.1465],[22.3697,49.1455],[22.3813,49.1305],[22.3902,49.1274],[22.4095,49.1051],[22.4284,49.0985],[22.4553,49.1037],[22.4668,49.1007],[22.4871,49.0884],[22.4998,49.0859],[22.5113,49.0922],[22.5348,49.0933],[22.5598,49.0873],[22.5825,49.0973],[22.5998,49.0935],[22.605,49.0845],[22.6257,49.0803],[22.638,49.0614],[22.6516,49.0508],[22.6833,49.0389],[22.6991,49.0497],[22.7146,49.0515],[22.7354,49.049],[22.755,49.0429],[22.7655,49.0535],[22.7862,49.0465],[22.8001,49.0366],[22.8095,49.0346],[22.8132,49.0251],[22.8337,49.0261],[22.8474,49.0025],[22.8597,49.002],[22.8916,49.0077],[22.8941,49.0176],[22.8788,49.0247],[22.8665,49.0409],[22.8758,49.0511],[22.8664,49.0596],[22.8682,49.0773],[22.8841,49.0818],[22.8928,49.0946],[22.876,49.0967],[22.8421,49.11],[22.8164,49.128],[22.7934,49.138],[22.7924,49.1534],[22.7603,49.1525],[22.7384,49.1595],[22.752,49.1814],[22.7328,49.1822],[22.7303,49.1756],[22.7147,49.1703],[22.7075,49.1748],[22.7226,49.1959],[22.7289,49.197],[22.7345,49.2119],[22.7475,49.2165],[22.7149,49.2265],[22.7213,49.2413],[22.7396,49.2473],[22.7441,49.2988],[22.751,49.3166],[22.7432,49.3358],[22.7468,49.3599],[22.7325,49.3986],[22.7135,49.4362],[22.6967,49.4951],[22.6704,49.4975],[22.6512,49.5084],[22.6408,49.53],[22.6632,49.5388],[22.6747,49.5492],[22.6847,49.5717],[22.7494,49.6313],[22.7833,49.6572],[22.7872,49.6765],[22.8056,49.6934],[22.8219,49.6945],[22.8478,49.7101],[22.8521,49.7204],[22.8734,49.7406],[22.8968,49.7518],[22.8979,49.7645],[22.9328,49.7933],[22.9544,49.8033],[22.9707,49.8386],[22.9955,49.8422],[23.0314,49.8795],[23.0652,49.9084],[23.0885,49.9248],[23.1075,49.942],[23.1149,49.9565],[23.1426,49.9712],[23.213,50.0311],[23.216,50.0475],[23.2393,50.0545],[23.2646,50.0789],[23.2793,50.0863],[23.2792,50.0998],[23.2969,50.1029],[23.314,50.112],[23.3421,50.1336],[23.3803,50.1594],[23.4294,50.1842],[23.4701,50.2179],[23.5063,50.2303],[23.5479,50.2518],[23.581,50.266],[23.6116,50.2992],[23.631,50.3048],[23.6388,50.3205],[23.6863,50.3316],[23.6912,50.3534],[23.7031,50.3753],[23.727,50.388],[23.7788,50.4011],[23.8034,50.4048],[23.884,50.4083],[23.9405,50.4139],[23.9975,50.4121],[24.0058,50.4354],[24.0345,50.4448],[24.038,50.4551],[24.0701,50.5034],[24.0855,50.5492],[24.0913,50.562],[24.0903,50.5779],[24.0987,50.5995],[24.0918,50.6165],[24.0936,50.6352],[24.0802,50.6451],[24.0893,50.6513],[24.0867,50.6691],[24.0629,50.6836],[24.0722,50.6986],[24.0751,50.7107],[24.072,50.7206],[24.0461,50.7171],[24.0184,50.7251],[24.0205,50.747],[24.0127,50.7581],[24.0238,50.7662],[24.0096,50.772],[23.985,50.7701],[23.9683,50.7763],[23.9684,50.7855],[23.9575,50.7941],[23.9652,50.8017],[23.9638,50.8144],[23.9896,50.8375],[24.0069,50.8412],[24.0246,50.8407],[24.0449,50.8337],[24.0968,50.8365],[24.1321,50.849],[24.1433,50.8582],[24.1454,50.8695],[24.1284,50.8677],[24.1129,50.8754],[24.1014,50.8761],[24.0869,50.8888],[24.0589,50.8922],[24.0381,50.9043],[24.0228,50.9166],[23.9988,50.9274],[23.987,50.9451],[23.9697,50.9509],[23.9667,50.9791],[23.9568,50.9908],[23.922,51.012],[23.9354,51.0153],[23.9182,51.0254],[23.9114,51.0742],[23.8918,51.0748],[23.8764,51.0792],[23.8714,51.0949],[23.8572,51.0995],[23.8554,51.1186],[23.8504,51.1249],[23.8703,51.1399],[23.8579,51.1581],[23.8305,51.1622],[23.8136,51.1714],[23.8089,51.1846],[23.7867,51.189],[23.7825,51.1991],[23.7681,51.2003],[23.7539,51.2113],[23.7391,51.2155],[23.743,51.2244],[23.7275,51.2357],[23.7242,51.2465],[23.7256,51.2618],[23.7095,51.2734],[23.7041,51.2818],[23.6857,51.2904],[23.6562,51.287],[23.646,51.2918],[23.6519,51.3003],[23.6395,51.3099],[23.6361,51.3291],[23.6562,51.3391],[23.6563,51.3586],[23.6691,51.3622],[23.6827,51.3727],[23.6806,51.3801],[23.6903,51.3986],[23.7005,51.4099],[23.6768,51.4305],[23.6825,51.4401],[23.6667,51.4454],[23.6513,51.4455],[23.6534,51.4593],[23.6714,51.4748],[23.6703,51.4825],[23.6361,51.4903],[23.6211,51.4959],[23.6173,51.5102],[23.6247,51.5144],[23.593,51.5354],[23.5874,51.5295],[23.5651,51.5344],[23.5657,51.5508],[23.5777,51.5579],[23.5678,51.5624],[23.5679,51.5756],[23.5425,51.6003],[23.5464,51.6219],[23.5412,51.6355],[23.5398,51.6549],[23.5445,51.6615],[23.5578,51.6647],[23.5491,51.6839],[23.5581,51.7016],[23.5471,51.7238],[23.5345,51.7232],[23.527,51.7298],[23.5304,51.7422],[23.546,51.7484],[23.5614,51.7613],[23.5739,51.7569],[23.5883,51.76],[23.597,51.7722],[23.6116,51.772],[23.6313,51.7815],[23.6297,51.7921],[23.6402,51.8048],[23.6203,51.8315],[23.6015,51.8331],[23.6174,51.857],[23.6103,51.8607],[23.6071,51.8763],[23.6204,51.8776],[23.6235,51.8869],[23.6369,51.8918],[23.6318,51.8997],[23.6184,51.9035],[23.6204,51.911],[23.612,51.9174],[23.6208,51.9251],[23.6447,51.9324],[23.6398,51.9535],[23.6505,51.9631],[23.6693,51.9647],[23.6654,51.9789],[23.6864,51.9867],[23.689,51.9919],[23.6763,52.0033],[23.6631,52.0242],[23.6627,52.0399],[23.6523,52.0586],[23.6444,52.0645],[23.6536,52.0711],[23.6429,52.0772],[23.6402,52.0858],[23.6201,52.0913],[23.6116,52.0982],[23.6078,52.1098],[23.5986,52.1174],[23.5802,52.1199],[23.567,52.1157],[23.5431,52.1204],[23.5417,52.1285],[23.5212,52.1329],[23.5098,52.1502],[23.5017,52.1471],[23.487,52.1548],[23.4908,52.1686],[23.5074,52.1739],[23.4856,52.1813],[23.4712,52.1743],[23.4582,52.1846],[23.4447,52.1828],[23.432,52.1734],[23.4228,52.1734],[23.4136,52.1826],[23.3988,52.1788],[23.4002,52.1945],[23.3712,52.1965],[23.366,52.208],[23.3525,52.2107],[23.3377,52.2062],[23.2991,52.2117],[23.2948,52.2211],[23.2734,52.2149],[23.239,52.2196],[23.2,52.2297],[23.1941,52.2395],[23.2056,52.2572],[23.2008,52.2644],[23.2012,52.2781],[23.1783,52.2831],[23.2162,52.3304],[23.2384,52.3544],[23.278,52.3928],[23.2999,52.4038],[23.3103,52.414],[23.3122,52.425],[23.3567,52.4689],[23.4081,52.5115],[23.4358,52.53],[23.4579,52.5404],[23.4666,52.5494],[23.5046,52.5663],[23.5402,52.5802],[23.5877,52.5941],[23.6414,52.6075],[23.7186,52.6147],[23.7315,52.6086],[23.7562,52.6145],[23.8794,52.6797],[23.8925,52.6797],[23.9001,52.6912],[23.9386,52.7129],[23.9396,52.8132],[23.9246,52.8307],[23.9237,52.8545],[23.9258,52.8988],[23.9162,52.9048],[23.9165,52.9388],[23.9463,52.9587],[23.9311,52.9762],[23.9333,52.9884],[23.9254,53.0246],[23.91,53.0328],[23.9168,53.039],[23.8987,53.0504],[23.9026,53.0582],[23.8823,53.0661],[23.8785,53.0794],[23.8721,53.082],[23.8888,53.105],[23.8872,53.1165],[23.8973,53.1312],[23.9158,53.143],[23.9174,53.1568],[23.9077,53.1722],[23.8957,53.1764],[23.8684,53.1939],[23.8572,53.2104],[23.8612,53.2211],[23.8553,53.2318],[23.8188,53.244],[23.799,53.2742],[23.7635,53.3381],[23.7371,53.3916],[23.7074,53.4365],[23.6672,53.5126],[23.6597,53.5214],[23.651,53.5456],[23.6269,53.5958],[23.6027,53.6626],[23.5853,53.7057],[23.5856,53.7283],[23.5821,53.7438],[23.5491,53.7678],[23.5447,53.7963],[23.5465,53.8267],[23.5535,53.8319],[23.5482,53.8561],[23.5241,53.8626],[23.5243,53.872],[23.5116,53.9159],[23.5149,53.9566],[23.5063,53.9658],[23.4904,53.9739],[23.4812,53.9988],[23.5009,54.0077],[23.509,54.0118],[23.5162,54.0286],[23.5249,54.0311],[23.5286,54.0658],[23.5184,54.0787],[23.5183,54.0898],[23.507,54.0995],[23.502,54.1129],[23.4926,54.117],[23.4953,54.1326],[23.4858,54.1532],[23.4755,54.1634],[23.4612,54.1678],[23.459,54.1755],[23.4245,54.1775],[23.4192,54.1911],[23.4064,54.1963],[23.3942,54.2169],[23.3832,54.2268],[23.3826,54.2275],[23.3817,54.2282],[23.3582,54.2336],[23.3484,54.2457],[23.3375,54.2517],[23.2887,54.2571],[23.2818,54.2607],[23.2489,54.2568],[23.2339,54.2609],[23.2238,54.2719],[23.2115,54.2782],[23.2024,54.2886],[23.1764,54.2909],[23.1542,54.297],[23.1598,54.3096],[23.1404,54.3159],[23.0922,54.2985],[23.0421,54.316],[23.0509,54.3335],[23.0632,54.341],[23.0477,54.3492],[23.0094,54.3557],[22.9939,54.3619],[23.0102,54.3828],[22.9848,54.3845],[22.9838,54.3896],[22.9485,54.3928],[22.9347,54.3962],[22.8875,54.3999],[22.888,54.4091],[22.8547,54.4104],[22.8363,54.4065],[22.8114,54.371],[22.792,54.3633],[22.7239,54.3608],[22.6806,54.3602],[22.6416,54.3538],[22.6165,54.3557],[22.5713,54.3539],[22.5281,54.3492],[22.4218,54.3485],[22.3825,54.3447],[22.2599,54.3406],[22.2257,54.3438],[22.1882,54.3389],[22.1528,54.3366],[22.097,54.3374],[22.0613,54.3356],[21.995,54.3356],[21.9697,54.3327],[21.9135,54.3337],[21.815,54.3312],[21.7962,54.3318],[21.6767,54.3268],[21.6349,54.3274],[21.5736,54.3254],[21.4958,54.324],[21.4461,54.3182],[21.437,54.3262],[21.3935,54.3279],[21.3795,54.3311],[21.3239,54.3294],[21.3029,54.3335],[21.2744,54.3284],[21.1967,54.3378],[21.1641,54.3373],[21.1432,54.3426],[21.0898,54.3473],[21.0381,54.3486],[21.0067,54.3536],[20.9582,54.3546],[20.8992,54.3582],[20.8184,54.36],[20.7408,54.3693],[20.7175,54.3692],[20.6894,54.3723],[20.6481,54.3712],[20.6311,54.3663],[20.6224,54.371],[20.584,54.378],[20.5055,54.3827],[20.4385,54.3879],[20.4034,54.3929],[20.3607,54.3959],[20.332,54.4011],[20.0513,54.4232],[20.0074,54.4247],[19.9351,54.4316],[19.8103,54.4419],[19.6487,54.4533],[19.6377,54.4592],[19.5971,54.4385],[19.5461,54.4185],[19.4781,54.3978],[19.4072,54.3809],[19.3074,54.3633],[19.2562,54.3573],[19.1665,54.3501],[19.0978,54.3464],[19.0367,54.3445],[18.9895,54.3451],[18.9688,54.3499],[18.9541,54.3591],[18.9172,54.3463],[18.8802,54.348],[18.8508,54.3522],[18.7762,54.3705],[18.7355,54.3745],[18.7178,54.3802],[18.7079,54.3903],[18.7313,54.4033],[18.7183,54.4086],[18.6976,54.4013],[18.6624,54.4131],[18.6435,54.4085],[18.6237,54.414],[18.5927,54.4291],[18.58,54.4383],[18.5646,54.4553],[18.5618,54.4707],[18.5691,54.4853],[18.5511,54.5153],[18.5616,54.5174],[18.5597,54.5506],[18.5535,54.5582],[18.5417,54.5851],[18.5339,54.5882],[18.5162,54.6066],[18.5106,54.6209],[18.512,54.6342],[18.4746,54.6311],[18.4683,54.6382],[18.474,54.6499],[18.4659,54.6557],[18.466,54.6862],[18.473,54.6946],[18.4467,54.7042],[18.4291,54.7171],[18.3938,54.7296],[18.3964,54.7464],[18.4068,54.7616],[18.4173,54.7694],[18.4221,54.7876],[18.4222,54.788],[18.4509,54.78],[18.4671,54.7723],[18.5066,54.7586],[18.5227,54.755],[18.596,54.7281],[18.6268,54.7184],[18.654,54.6998],[18.6856,54.6947],[18.7158,54.6782],[18.7484,54.6494],[18.7642,54.6376],[18.7778,54.621],[18.7791,54.6131],[18.7953,54.6087],[18.799,54.6014],[18.8137,54.5932],[18.8289,54.6077],[18.8262,54.6233],[18.7944,54.6481],[18.7332,54.6819],[18.6616,54.7111],[18.5444,54.7501],[18.4342,54.7891],[18.4214,54.798],[18.3697,54.8139],[18.3489,54.8273],[18.3294,54.8353],[18.3005,54.8364],[18.2338,54.8338],[18.1732,54.8349],[18.1289,54.8336],[18.0803,54.8352],[17.9678,54.8323],[17.915,54.8274],[17.8082,54.8076],[17.7561,54.8016],[17.6681,54.7835],[17.6268,54.7773],[17.5508,54.7701],[17.4697,54.757],[17.4037,54.7537],[17.3545,54.7497],[17.3201,54.7419],[17.2632,54.7341],[17.2419,54.7296],[17.1518,54.6985],[17.0508,54.6697],[17.0003,54.6375],[16.9521,54.6126],[16.89,54.5917],[16.8536,54.5889],[16.7935,54.5775],[16.7651,54.5698],[16.748,54.5683],[16.6991,54.5692],[16.6887,54.5696],[16.6145,54.5598],[16.5299,54.5407],[16.4968,54.5231],[16.4797,54.5164],[16.4315,54.487],[16.3946,54.4477],[16.3716,54.4414],[16.3743,54.4378],[16.3575,54.4206],[16.3138,54.3834],[16.2624,54.3493],[16.2047,54.3152],[16.1546,54.2922],[16.1024,54.2744],[16.0293,54.2585],[15.974,54.2513],[15.9373,54.248],[15.876,54.2443],[15.8483,54.2411],[15.8099,54.2327],[15.7583,54.2179],[15.7188,54.2092],[15.6612,54.1988],[15.6428,54.1971],[15.5884,54.1876],[15.5532,54.1876],[15.5245,54.1748],[15.4801,54.166],[15.4294,54.1654],[15.3961,54.1605],[15.286,54.1471],[15.2472,54.135],[15.1372,54.1106],[15.0955,54.1003],[15.0596,54.0949],[14.9293,54.0617],[14.7812,54.0338],[14.7277,54.0229],[14.7023,54.0132],[14.6683,54.003],[14.6436,53.9986],[14.5685,53.9812],[14.5347,53.9703],[14.4992,53.9634],[14.4548,53.9364],[14.4285,53.9255],[14.4085,53.9198],[14.3662,53.9127],[14.3445,53.9119],[14.3029,53.9196],[14.3015,53.9304],[14.2804,53.9376],[14.2712,53.9348],[14.2726,53.9242],[14.2497,53.924],[14.2261,53.9277],[14.2076,53.9159],[14.204,53.9066],[14.2121,53.9006],[14.2154,53.8808],[14.2139,53.8654],[14.2836,53.7723],[14.267,53.7535],[14.2735,53.7444],[14.2668,53.6987],[14.2823,53.6743],[14.2708,53.6668],[14.2848,53.6587],[14.2839,53.6344],[14.3111,53.6185],[14.3169,53.6181],[14.3119,53.5797],[14.3139,53.5651],[14.3026,53.5534],[14.3058,53.5439],[14.3159,53.5369],[14.3158,53.5251],[14.3269,53.5038],[14.3507,53.496],[14.3581,53.4573],[14.3713,53.4564],[14.3687,53.4326],[14.3733,53.4089],[14.3893,53.3878],[14.3954,53.3692],[14.3903,53.3537],[14.4055,53.3471],[14.4154,53.3244],[14.4068,53.3087],[14.4149,53.3019],[14.4212,53.2761],[14.4452,53.2744],[14.4496,53.2595],[14.436,53.2496],[14.4308,53.2391],[14.4085,53.2232],[14.4059,53.2107],[14.3773,53.2018],[14.3746,53.1878],[14.3663,53.172],[14.3737,53.1543],[14.3873,53.1424],[14.3783,53.1116],[14.3702,53.1046],[14.3713,53.0965],[14.3655,53.0786],[14.3524,53.0589],[14.338,53.0466],[14.3123,53.0355],[14.2916,53.02],[14.259,53.003],[14.2356,52.9932],[14.2094,52.9882],[14.1687,52.9736],[14.1606,52.9646],[14.1437,52.9614],[14.1388,52.9518],[14.1443,52.9435],[14.1426,52.9332],[14.1502,52.9163],[14.1523,52.9006],[14.1616,52.8881],[14.1588,52.8773],[14.1237,52.8454]]]}}]}